[
    {
        "Altitude(m)": 605470.753062425,
        "Argument of Periapsis(deg)": 0.0,
        "Eccentricity": 0.0,
        "Inclination(deg)": 60.0,
        "Latitude(deg)": 27.98808621929854,
        "Longitude(deg)": -17.737109846118553,
        "Mean Anomaly(deg)": -212.7273,
        "RAAN(deg)": 280.0,
        "Satellite Name": "Test1 1241",
        "Satellite Number": 1241,
        "Semi-Major Axis(m)": 6980739.136638005,
        "Time(s)": 0
    },
    {
        "Altitude(m)": 605395.7916036965,
        "Argument of Periapsis(deg)": 0.00010418945913296404,
        "Eccentricity": 0.0,
        "Inclination(deg)": 60.0,
        "Latitude(deg)": 27.473777573579813,
        "Longitude(deg)": -17.383921220962467,
        "Mean Anomaly(deg)": -212.1071938545382,
        "RAAN(deg)": 279.99957995086027,
        "Satellite Name": "Test1 1241",
        "Satellite Number": 1241,
        "Semi-Major Axis(m)": 6980739.136638005,
        "Time(s)": 10
    }
]